CCSDS_OMM_VERS = 2.0
CREATION_DATE  = 
ORIGINATOR     = 

OBJECT_NAME    = SL-16 R/B
OBJECT_ID      = 1993-016B
CENTER_NAME    = EARTH
REF_FRAME      = TEME
TIME_SYSTEM    = UTC
MEAN_ELEMENT_THEORY = SGP/SGP4

EPOCH          = 2025-12-18T12:01:05.949120
MEAN_MOTION    = 14.15288254
ECCENTRICITY   = .00080071
INCLINATION    = 71.0079
RA_OF_ASC_NODE = 25.7039
ARG_OF_PERICENTER = 86.4641
MEAN_ANOMALY   = 273.7398

EPHEMERIS_TYPE = 0
CLASSIFICATION_TYPE = U
NORAD_CAT_ID   = 22566
ELEMENT_SET_NO = 999
REV_AT_EPOCH   = 69068
BSTAR          = .14028823E-3
MEAN_MOTION_DOT = .226E-5
MEAN_MOTION_DDOT = 0

CCSDS_OMM_VERS = 2.0
CREATION_DATE  = 
ORIGINATOR     = 

OBJECT_NAME    = COSMOS 2242
OBJECT_ID      = 1993-024A
CENTER_NAME    = EARTH
REF_FRAME      = TEME
TIME_SYSTEM    = UTC
MEAN_ELEMENT_THEORY = SGP/SGP4

EPOCH          = 2025-12-18T10:54:23.834592
MEAN_MOTION    = 14.96129268
ECCENTRICITY   = .00153298
INCLINATION    = 82.5183
RA_OF_ASC_NODE = 344.3822
ARG_OF_PERICENTER = 213.5668
MEAN_ANOMALY   = 146.4584

EPHEMERIS_TYPE = 0
CLASSIFICATION_TYPE = U
NORAD_CAT_ID   = 22626
ELEMENT_SET_NO = 999
REV_AT_EPOCH   = 76824
BSTAR          = .15004347E-3
MEAN_MOTION_DOT = .1717E-4
MEAN_MOTION_DDOT = 0

CCSDS_OMM_VERS = 2.0
CREATION_DATE  = 
ORIGINATOR     = 

OBJECT_NAME    = SL-16 R/B
OBJECT_ID      = 1993-059B
CENTER_NAME    = EARTH
REF_FRAME      = TEME
TIME_SYSTEM    = UTC
MEAN_ELEMENT_THEORY = SGP/SGP4

EPOCH          = 2025-12-18T14:10:13.331712
MEAN_MOTION    = 14.17213042
ECCENTRICITY   = .00182882
INCLINATION    = 70.9880
RA_OF_ASC_NODE = 182.1484
ARG_OF_PERICENTER = 327.3350
MEAN_ANOMALY   = 32.6641

EPHEMERIS_TYPE = 0
CLASSIFICATION_TYPE = U
NORAD_CAT_ID   = 22803
ELEMENT_SET_NO = 999
REV_AT_EPOCH   = 66804
BSTAR          = .2399029E-5
MEAN_MOTION_DOT = -.43E-6
MEAN_MOTION_DDOT = 0

CCSDS_OMM_VERS = 2.0
CREATION_DATE  = 
ORIGINATOR     = 

OBJECT_NAME    = ARIANE 40 R/B
OBJECT_ID      = 1993-061H
CENTER_NAME    = EARTH
REF_FRAME      = TEME
TIME_SYSTEM    = UTC
MEAN_ELEMENT_THEORY = SGP/SGP4

EPOCH          = 2025-12-18T09:56:47.323104
MEAN_MOTION    = 14.32805121
ECCENTRICITY   = .00111989
INCLINATION    = 98.5070
RA_OF_ASC_NODE = 57.8410
ARG_OF_PERICENTER = 159.6941
MEAN_ANOMALY   = 200.4690

EPHEMERIS_TYPE = 0
CLASSIFICATION_TYPE = U
NORAD_CAT_ID   = 22830
ELEMENT_SET_NO = 999
REV_AT_EPOCH   = 68246
BSTAR          = .95195243E-4
MEAN_MOTION_DOT = .216E-5
MEAN_MOTION_DDOT = 0

CCSDS_OMM_VERS = 2.0
CREATION_DATE  = 
ORIGINATOR     = 

OBJECT_NAME    = COSMOS 2278
OBJECT_ID      = 1994-023A
CENTER_NAME    = EARTH
REF_FRAME      = TEME
TIME_SYSTEM    = UTC
MEAN_ELEMENT_THEORY = SGP/SGP4

EPOCH          = 2025-12-18T09:44:45.689568
MEAN_MOTION    = 14.14348758
ECCENTRICITY   = .00080146
INCLINATION    = 71.0535
RA_OF_ASC_NODE = 345.1556
ARG_OF_PERICENTER = 169.8446
MEAN_ANOMALY   = 190.2840

EPHEMERIS_TYPE = 0
CLASSIFICATION_TYPE = U
NORAD_CAT_ID   = 23087
ELEMENT_SET_NO = 999
REV_AT_EPOCH   = 63331
BSTAR          = -.7816451E-4
MEAN_MOTION_DOT = -.197E-5
MEAN_MOTION_DDOT = 0

CCSDS_OMM_VERS = 2.0
CREATION_DATE  = 
ORIGINATOR     = 

OBJECT_NAME    = SL-16 R/B
OBJECT_ID      = 1994-023B
CENTER_NAME    = EARTH
REF_FRAME      = TEME
TIME_SYSTEM    = UTC
MEAN_ELEMENT_THEORY = SGP/SGP4

EPOCH          = 2025-12-18T10:03:12.470976
MEAN_MOTION    = 14.15002219
ECCENTRICITY   = .00017045
INCLINATION    = 70.9994
RA_OF_ASC_NODE = 241.5598
ARG_OF_PERICENTER = 11.5777
MEAN_ANOMALY   = 348.5385

EPHEMERIS_TYPE = 0
CLASSIFICATION_TYPE = U
NORAD_CAT_ID   = 23088
ELEMENT_SET_NO = 999
REV_AT_EPOCH   = 63459
BSTAR          = -.69620765E-4
MEAN_MOTION_DOT = -.182E-5
MEAN_MOTION_DDOT = 0

CCSDS_OMM_VERS = 2.0
CREATION_DATE  = 
ORIGINATOR     = 

OBJECT_NAME    = SL-16 R/B
OBJECT_ID      = 1994-074B
CENTER_NAME    = EARTH
REF_FRAME      = TEME
TIME_SYSTEM    = UTC
MEAN_ELEMENT_THEORY = SGP/SGP4

EPOCH          = 2025-12-18T13:52:44.752800
MEAN_MOTION    = 14.79296124
ECCENTRICITY   = .00078515
INCLINATION    = 97.7196
RA_OF_ASC_NODE = 21.6507
ARG_OF_PERICENTER = 119.7015
MEAN_ANOMALY   = 40.7424

EPHEMERIS_TYPE = 0
CLASSIFICATION_TYPE = U
NORAD_CAT_ID   = 23343
ELEMENT_SET_NO = 999
REV_AT_EPOCH   = 67525
BSTAR          = .56839584E-4
MEAN_MOTION_DOT = .374E-5
MEAN_MOTION_DDOT = 0

CCSDS_OMM_VERS = 2.0
CREATION_DATE  = 
ORIGINATOR     = 

OBJECT_NAME    = SL-16 R/B
OBJECT_ID      = 1994-077B
CENTER_NAME    = EARTH
REF_FRAME      = TEME
TIME_SYSTEM    = UTC
MEAN_ELEMENT_THEORY = SGP/SGP4

EPOCH          = 2025-12-18T15:27:39.653280
MEAN_MOTION    = 14.15552723
ECCENTRICITY   = .00049081
INCLINATION    = 70.9818
RA_OF_ASC_NODE = 162.9926
ARG_OF_PERICENTER = 281.0612
MEAN_ANOMALY   = 78.9959

EPHEMERIS_TYPE = 0
CLASSIFICATION_TYPE = U
NORAD_CAT_ID   = 23405
ELEMENT_SET_NO = 999
REV_AT_EPOCH   = 60476
BSTAR          = .59186355E-4
MEAN_MOTION_DOT = .68E-6
MEAN_MOTION_DDOT = 0

CCSDS_OMM_VERS = 2.0
CREATION_DATE  = 
ORIGINATOR     = 

OBJECT_NAME    = ARIANE 40+ R/B
OBJECT_ID      = 1995-021B
CENTER_NAME    = EARTH
REF_FRAME      = TEME
TIME_SYSTEM    = UTC
MEAN_ELEMENT_THEORY = SGP/SGP4

EPOCH          = 2025-12-18T15:55:23.318112
MEAN_MOTION    = 14.39699915
ECCENTRICITY   = .00072026
INCLINATION    = 98.4646
RA_OF_ASC_NODE = 60.1808
ARG_OF_PERICENTER = 33.7570
MEAN_ANOMALY   = 128.1351

EPHEMERIS_TYPE = 0
CLASSIFICATION_TYPE = U
NORAD_CAT_ID   = 23561
ELEMENT_SET_NO = 999
REV_AT_EPOCH   = 60758
BSTAR          = .94512229E-4
MEAN_MOTION_DOT = .252E-5
MEAN_MOTION_DDOT = 0

CCSDS_OMM_VERS = 2.0
CREATION_DATE  = 
ORIGINATOR     = 

OBJECT_NAME    = SL-16 R/B
OBJECT_ID      = 1995-058B
CENTER_NAME    = EARTH
REF_FRAME      = TEME
TIME_SYSTEM    = UTC
MEAN_ELEMENT_THEORY = SGP/SGP4

EPOCH          = 2025-12-18T10:26:39.377472
MEAN_MOTION    = 14.15483599
ECCENTRICITY   = .0014929
INCLINATION    = 71.0222
RA_OF_ASC_NODE = 350.8468
ARG_OF_PERICENTER = 248.0933
MEAN_ANOMALY   = 111.8603

EPHEMERIS_TYPE = 0
CLASSIFICATION_TYPE = U
NORAD_CAT_ID   = 23705
ELEMENT_SET_NO = 999
REV_AT_EPOCH   = 55635
BSTAR          = -.73492183E-4
MEAN_MOTION_DOT = -.191E-5
MEAN_MOTION_DDOT = 0

CCSDS_OMM_VERS = 2.0
CREATION_DATE  = 
ORIGINATOR     = 

OBJECT_NAME    = SL-16 R/B
OBJECT_ID      = 1996-051B
CENTER_NAME    = EARTH
REF_FRAME      = TEME
TIME_SYSTEM    = UTC
MEAN_ELEMENT_THEORY = SGP/SGP4

EPOCH          = 2025-12-18T10:30:15.379200
MEAN_MOTION    = 14.12397340
ECCENTRICITY   = .00194674
INCLINATION    = 70.7595
RA_OF_ASC_NODE = 347.2229
ARG_OF_PERICENTER = 254.3640
MEAN_ANOMALY   = 105.5332

EPHEMERIS_TYPE = 0
CLASSIFICATION_TYPE = U
NORAD_CAT_ID   = 24298
ELEMENT_SET_NO = 999
REV_AT_EPOCH   = 51017
BSTAR          = .16749431E-4
MEAN_MOTION_DOT = -.18E-6
MEAN_MOTION_DDOT = 0

CCSDS_OMM_VERS = 2.0
CREATION_DATE  = 
ORIGINATOR     = 

OBJECT_NAME    = ORBVIEW 2 (SEASTAR)
OBJECT_ID      = 1997-037A
CENTER_NAME    = EARTH
REF_FRAME      = TEME
TIME_SYSTEM    = UTC
MEAN_ELEMENT_THEORY = SGP/SGP4

EPOCH          = 2025-12-18T10:07:45.594336
MEAN_MOTION    = 14.35421183
ECCENTRICITY   = .0001424
INCLINATION    = 98.8459
RA_OF_ASC_NODE = 149.6396
ARG_OF_PERICENTER = 319.1237
MEAN_ANOMALY   = 40.9841

EPHEMERIS_TYPE = 0
CLASSIFICATION_TYPE = U
NORAD_CAT_ID   = 24883
ELEMENT_SET_NO = 999
REV_AT_EPOCH   = 49681
BSTAR          = .91602275E-4
MEAN_MOTION_DOT = .216E-5
MEAN_MOTION_DDOT = 0

