SL-16 R/B               
1 22566U 93016B   25352.50076330  .00000226  00000+0  14029-3 0  9999
2 22566  71.0079  25.7039 0008007  86.4641 273.7398 14.15288254690685
COSMOS 2242             
1 22626U 93024A   25352.45444253  .00001717  00000+0  15004-3 0  9992
2 22626  82.5183 344.3822 0015329 213.5668 146.4584 14.96129268768241
SL-16 R/B               
1 22803U 93059B   25352.59043208 -.00000043  00000+0  23990-5 0  9994
2 22803  70.9880 182.1484 0018288 327.3350  32.6641 14.17213042668048
ARIANE 40 R/B           
1 22830U 93061H   25352.41443661  .00000216  00000+0  95195-4 0  9991
2 22830  98.5070  57.8410 0011198 159.6941 200.4690 14.32805121682460
COSMOS 2278             
1 23087U 94023A   25352.40608437 -.00000197  00000+0 -78165-4 0  9996
2 23087  71.0535 345.1556 0008014 169.8446 190.2840 14.14348758633318
SL-16 R/B               
1 23088U 94023B   25352.41889434 -.00000182  00000+0 -69621-4 0  9997
2 23088  70.9994 241.5598 0001704  11.5777 348.5385 14.15002219634593
SL-16 R/B               
1 23343U 94074B   25352.57829575  .00000374  00000+0  56840-4 0  9994
2 23343  97.7196  21.6507 0007851 119.7015  40.7424 14.79296124675253
SL-16 R/B               
1 23405U 94077B   25352.64420895  .00000068  00000+0  59186-4 0  9992
2 23405  70.9818 162.9926 0004908 281.0612  78.9959 14.15552723604760
ARIANE 40+ R/B          
1 23561U 95021B   25352.66346433  .00000252  00000+0  94512-4 0  9999
2 23561  98.4646  60.1808 0007202  33.7570 128.1351 14.39699915607588
SL-16 R/B               
1 23705U 95058B   25352.43517798 -.00000191  00000+0 -73492-4 0  9996
2 23705  71.0222 350.8468 0014929 248.0933 111.8603 14.15483599556354
SL-16 R/B               
1 24298U 96051B   25352.43767800 -.00000018  00000+0  16749-4 0  9998
2 24298  70.7595 347.2229 0019467 254.3640 105.5332 14.12397340510177
ORBVIEW 2 (SEASTAR)     
1 24883U 97037A   25352.42205549  .00000216  00000+0  91602-4 0  9999
2 24883  98.8459 149.6396 0001424 319.1237  40.9841 14.35421183496811
